OBJECT_NAME,OBJECT_ID,EPOCH,MEAN_MOTION,ECCENTRICITY,INCLINATION,RA_OF_ASC_NODE,ARG_OF_PERICENTER,MEAN_ANOMALY,EPHEMERIS_TYPE,CLASSIFICATION_TYPE,NORAD_CAT_ID,ELEMENT_SET_NO,REV_AT_EPOCH,BSTAR,MEAN_MOTION_DOT,MEAN_MOTION_DDOT
STARLINK-35260,2025-216T,2026-07-18T01:58:40.622304,15.34401862,.0001324,53.1601,86.7786,84.7752,275.3401,0,U,65751,999,4651,.45200095E-3,.14927E-3,0
STARLINK-34893,2025-216U,2026-07-17T23:15:19.289664,15.34395787,.00013437,53.1601,87.4967,113.3971,246.7174,0,U,65752,999,4646,.28848881E-3,.9382E-4,0
STARLINK-34894,2025-216V,2026-07-18T06:00:02.000160,15.34411839,.0000793,53.1587,86.2956,110.3675,304.9510,0,U,65753,999,587,-.27535936E-4,-.1306E-4,0
STARLINK-35287,2025-216W,2026-07-18T02:08:28.099968,15.30183722,.00012746,53.1597,86.8195,104.5922,255.5220,0,U,65754,999,4647,.14935096E-3,.4064E-4,0
STARLINK-35294,2025-216X,2026-07-17T04:22:10.526592,15.30682323,.00018002,53.1592,91.1114,135.6323,224.4822,0,U,65755,999,4637,.83264297E-2,.258841E-2,0
STARLINK-35275,2025-216Y,2026-07-18T02:31:59.909664,15.34402957,.00005144,53.1596,86.9216,86.0776,274.0285,0,U,65756,999,4651,.37830414E-3,.12428E-3,0
STARLINK-35211,2025-216Z,2026-07-18T01:31:24.502656,15.34403804,.00012554,53.1597,86.6622,92.2418,267.8728,0,U,65757,999,4651,.49196264E-3,.16284E-3,0
STARLINK-35313,2025-216AA,2026-07-18T02:10:47.582400,15.34397178,.00012808,53.1611,86.8287,96.9216,263.1932,0,U,65758,999,4647,.3360278E-3,.10993E-3,0
STARLINK-34692,2025-216AB,2026-07-18T01:34:26.071392,15.34388198,.00012028,53.1587,86.6728,58.8838,301.2282,0,U,65759,999,4647,-.15921364E-4,-.914E-5,0
STARLINK-34890,2025-216AC,2026-07-17T22:17:45.399552,15.34400557,.00012545,53.1585,87.2446,94.4167,265.6979,0,U,65760,999,4648,.56882298E-3,.18891E-3,0
STARLINK-34889,2025-216AD,2026-07-18T01:55:38.801280,15.34401256,.00015,53.1597,86.7690,93.7788,266.3387,0,U,65761,999,4656,.35958558E-3,.11792E-3,0
KUIPER-00120,2025-217A,2026-07-18T06:36:18.699552,14.79936630,.00005072,51.8978,195.6060,63.5638,296.5376,0,U,65762,999,4407,.17183028E-3,.1089E-4,0
KUIPER-00132,2025-217B,2026-07-17T23:23:17.389248,15.43380440,.00073317,51.8546,89.1282,75.5741,284.6061,0,U,65763,999,4552,.34996403E-3,.15506E-3,0
KUIPER-00133,2025-217C,2026-07-18T04:10:27.910560,14.79938249,.00004576,51.9036,196.1649,53.8098,306.2907,0,U,65764,999,4406,.1913706E-3,.1238E-4,0
KUIPER-00139,2025-217D,2026-07-18T06:38:09.994848,14.79926642,.00007942,51.8975,163.1676,80.1019,280.0033,0,U,65765,999,4453,.93047073E-4,.488E-5,0
KUIPER-00142,2025-217E,2026-07-18T05:26:12.800256,14.79927663,.0000633,51.8994,178.3496,67.3356,292.7673,0,U,65766,999,4431,-.8785054E-5,-.288E-5,0
KUIPER-00145,2025-217F,2026-07-18T03:45:13.671072,14.79923793,.00007231,51.8991,181.1813,67.3063,292.7976,0,U,65767,999,4426,.17974207E-3,.1149E-4,0
KUIPER-00147,2025-217G,2026-07-18T06:07:04.166976,14.79928260,.0000547,51.8967,183.2252,85.2478,274.8547,0,U,65768,999,4424,.20312336E-4,-.66E-6,0
KUIPER-00148,2025-217H,2026-07-18T06:00:02.000160,14.79943132,.00006747,51.9037,165.7628,49.0816,184.6011,0,U,65769,999,531,.94624921E-3,.7002E-4,0
KUIPER-00150,2025-217J,2026-07-18T05:51:30.240864,14.79989821,.00005931,51.8999,193.3077,74.8033,285.2995,0,U,65770,999,4410,-.1344795E-2,-.10471E-3,0
KUIPER-00151,2025-217K,2026-07-18T04:25:56.705376,14.79926594,.00006887,51.8997,186.0704,50.1746,309.9277,0,U,65771,999,4420,-.1505773E-4,-.336E-5,0
KUIPER-00152,2025-217L,2026-07-18T05:34:03.106560,14.79935304,.00006338,51.9004,173.3442,60.9736,299.1290,0,U,65772,999,4438,.17938983E-3,.1147E-4,0
KUIPER-00153,2025-217M,2026-07-18T04:04:31.831968,14.79929282,.0000647,51.9024,168.6946,75.9630,284.1404,0,U,65773,999,4444,.17910789E-3,.1144E-4,0
KUIPER-00155,2025-217N,2026-07-18T03:09:59.129568,14.79944057,.00008416,51.9025,141.3252,73.0297,287.0757,0,U,65774,999,4482,.22870764E-3,.1523E-4,0
KUIPER-00156,2025-217P,2026-07-18T03:15:57.367296,14.79935629,.00006775,51.9023,168.8258,69.5936,290.5099,0,U,65775,999,4443,.19921765E-3,.1298E-4,0
KUIPER-00163,2025-217R,2026-07-18T02:31:25.336704,16.08739632,.00016148,51.8715,102.2074,194.7616,165.3354,0,U,65777,999,4534,.64586598E-3,.574484E-2,.17834315E-3
KUIPER-00165,2025-217S,2026-07-18T03:00:21.598272,14.79922960,.00005258,51.9004,178.8176,83.0982,277.0040,0,U,65778,999,4429,.18702222E-3,.1205E-4,0
KUIPER-00166,2025-217T,2026-07-18T02:31:01.245792,14.80005466,.00007714,51.9021,166.4568,73.0340,287.0707,0,U,65779,999,4446,.96313129E-3,.7141E-4,0
KUIPER-00167,2025-217U,2026-07-18T04:22:01.962624,14.79925125,.00006594,51.8941,188.4742,58.6188,301.4839,0,U,65780,999,4416,.21024221E-4,-.61E-6,0
KUIPER-00168,2025-217V,2026-07-18T04:49:18.852096,14.79933271,.00006313,51.8997,170.9882,60.1481,299.9544,0,U,65781,999,4441,.19848263E-3,.1292E-4,0
