STARLINK-35260          
1 65751U 25216T   26199.08241461  .00014927  00000+0  45200-3 0  9999
2 65751  53.1601  86.7786 0001324  84.7752 275.3401 15.34401862 46519
STARLINK-34893          
1 65752U 25216U   26198.96897326  .00009382  00000+0  28849-3 0  9992
2 65752  53.1601  87.4967 0001343 113.3971 246.7174 15.34395787 46463
STARLINK-34894          
1 65753U 25216V   26199.25002315 -.00001306  00000+0 -27536-4 0  9995
2 65753  53.1587  86.2956 0000793 110.3675 304.9510 15.34411839  5876
STARLINK-35287          
1 65754U 25216W   26199.08921412  .00004064  00000+0  14935-3 0  9995
2 65754  53.1597  86.8195 0001274 104.5922 255.5220 15.30183722 46477
STARLINK-35294          
1 65755U 25216X   26198.18206628  .00258841  00000+0  83264-2 0  9995
2 65755  53.1592  91.1114 0001800 135.6323 224.4822 15.30682323 46371
STARLINK-35275          
1 65756U 25216Y   26199.10555451  .00012428  00000+0  37830-3 0  9998
2 65756  53.1596  86.9216 0000514  86.0776 274.0285 15.34402957 46510
STARLINK-35211          
1 65757U 25216Z   26199.06347804  .00016284  00000+0  49196-3 0  9997
2 65757  53.1597  86.6622 0001255  92.2418 267.8728 15.34403804 46519
STARLINK-35313          
1 65758U 25216AA  26199.09082850  .00010993  00000+0  33603-3 0  9995
2 65758  53.1611  86.8287 0001280  96.9216 263.1932 15.34397178 46478
STARLINK-34692          
1 65759U 25216AB  26199.06557953 -.00000914  00000+0 -15921-4 0  9992
2 65759  53.1587  86.6728 0001202  58.8838 301.2282 15.34388198 46474
STARLINK-34890          
1 65760U 25216AC  26198.92899768  .00018891  00000+0  56882-3 0  9992
2 65760  53.1585  87.2446 0001254  94.4167 265.6979 15.34400557 46487
STARLINK-34889          
1 65761U 25216AD  26199.08031020  .00011792  00000+0  35959-3 0  9995
2 65761  53.1597  86.7690 0001500  93.7788 266.3387 15.34401256 46568
KUIPER-00120            
1 65762U 25217A   26199.27521643  .00001089  00000+0  17183-3 0  9990
2 65762  51.8978 195.6060 0000507  63.5638 296.5376 14.79936630 44077
KUIPER-00132            
1 65763U 25217B   26198.97450682  .00015506  00000+0  34996-3 0  9991
2 65763  51.8546  89.1282 0007331  75.5741 284.6061 15.43380440 45526
KUIPER-00133            
1 65764U 25217C   26199.17393415  .00001238  00000+0  19137-3 0  9992
2 65764  51.9036 196.1649 0000457  53.8098 306.2907 14.79938249 44066
KUIPER-00139            
1 65765U 25217D   26199.27650457  .00000488  00000+0  93047-4 0  9995
2 65765  51.8975 163.1676 0000794  80.1019 280.0033 14.79926642 44537
KUIPER-00142            
1 65766U 25217E   26199.22653704 -.00000288  00000+0 -87851-5 0  9996
2 65766  51.8994 178.3496 0000633  67.3356 292.7673 14.79927663 44310
KUIPER-00145            
1 65767U 25217F   26199.15640823  .00001149  00000+0  17974-3 0  9999
2 65767  51.8991 181.1813 0000723  67.3063 292.7976 14.79923793 44268
KUIPER-00147            
1 65768U 25217G   26199.25490934 -.00000066  00000+0  20312-4 0  9996
2 65768  51.8967 183.2252 0000547  85.2478 274.8547 14.79928260 44242
KUIPER-00148            
1 65769U 25217H   26199.25002315  .00007002  00000+0  94625-3 0  9992
2 65769  51.9037 165.7628 0000674  49.0816 184.6011 14.79943132  5313
KUIPER-00150            
1 65770U 25217J   26199.24410001 -.00010471  00000+0 -13448-2 0  9997
2 65770  51.8999 193.3077 0000593  74.8033 285.2995 14.79989821 44107
KUIPER-00151            
1 65771U 25217K   26199.18468409 -.00000336  00000+0 -15058-4 0  9996
2 65771  51.8997 186.0704 0000688  50.1746 309.9277 14.79926594 44201
KUIPER-00152            
1 65772U 25217L   26199.23198040  .00001147  00000+0  17939-3 0  9992
2 65772  51.9004 173.3442 0000633  60.9736 299.1290 14.79935304 44381
KUIPER-00153            
1 65773U 25217M   26199.16981287  .00001144  00000+0  17911-3 0  9995
2 65773  51.9024 168.6946 0000647  75.9630 284.1404 14.79929282 44440
KUIPER-00155            
1 65774U 25217N   26199.13193437  .00001523  00000+0  22871-3 0  9997
2 65774  51.9025 141.3252 0000841  73.0297 287.0757 14.79944057 44826
KUIPER-00156            
1 65775U 25217P   26199.13608064  .00001298  00000+0  19922-3 0  9997
2 65775  51.9023 168.8258 0000677  69.5936 290.5099 14.79935629 44432
KUIPER-00163            
1 65777U 25217R   26199.10515436  .00574484  17834-3  64587-3 0  9992
2 65777  51.8715 102.2074 0001614 194.7616 165.3354 16.08739632 45341
KUIPER-00165            
1 65778U 25217S   26199.12524998  .00001205  00000+0  18702-3 0  9995
2 65778  51.9004 178.8176 0000525  83.0982 277.0040 14.79922960 44292
KUIPER-00166            
1 65779U 25217T   26199.10487553  .00007141  00000+0  96313-3 0  9998
2 65779  51.9021 166.4568 0000771  73.0340 287.0707 14.80005466 44465
KUIPER-00167            
1 65780U 25217U   26199.18196716 -.00000061  00000+0  21024-4 0  9999
2 65780  51.8941 188.4742 0000659  58.6188 301.4839 14.79925125 44164
KUIPER-00168            
1 65781U 25217V   26199.20091264  .00001292  00000+0  19848-3 0  9991
2 65781  51.8997 170.9882 0000631  60.1481 299.9544 14.79933271 44414
